{
    "links": {
        "self": "http://www.neowsapp.com/rest/v1/neo/3989674?api_key=iIulBulltgU6a56xZRHN4H3l9WmuAYTsLGpBGhQ2"
    },
    "id": "3989674",
    "neo_reference_id": "3989674",
    "name": "(2020 CO1)",
    "designation": "2020 CO1",
    "nasa_jpl_url": "http://ssd.jpl.nasa.gov/sbdb.cgi?sstr=3989674",
    "absolute_magnitude_h": 24.113,
    "estimated_diameter": {
        "kilometers": {
            "estimated_diameter_min": 0.039990329,
            "estimated_diameter_max": 0.089421094
        },
        "meters": {
            "estimated_diameter_min": 39.990328956,
            "estimated_diameter_max": 89.4210939883
        },
        "miles": {
            "estimated_diameter_min": 0.0248488307,
            "estimated_diameter_max": 0.0555636746
        },
        "feet": {
            "estimated_diameter_min": 131.2018708521,
            "estimated_diameter_max": 293.3763020005
        }
    },
    "is_potentially_hazardous_asteroid": false,
    "close_approach_data": [
        {
            "close_approach_date": "2020-01-25",
            "close_approach_date_full": "2020-Jan-25 02:14",
            "epoch_date_close_approach": 1579918440000,
            "relative_velocity": {
                "kilometers_per_second": "15.3679992259",
                "kilometers_per_hour": "55324.7972132396",
                "miles_per_hour": "34376.6774684155"
            },
            "miss_distance": {
                "astronomical": "0.081312493",
                "lunar": "31.630559777",
                "kilometers": "12164175.75718991",
                "miles": "7558468.324684358"
            },
            "orbiting_body": "Earth"
        }
    ],
    "orbital_data": {
        "orbit_id": "2",
        "orbit_determination_date": "2020-02-06 05:21:05",
        "first_observation_date": "2020-02-03",
        "last_observation_date": "2020-02-06",
        "data_arc_in_days": 3,
        "observations_used": 18,
        "orbit_uncertainty": "9",
        "minimum_orbit_intersection": ".0235838",
        "jupiter_tisserand_invariant": "3.317",
        "epoch_osculation": "2458883.5",
        "eccentricity": ".6742609643290188",
        "semi_major_axis": "2.205405347947746",
        "inclination": "5.41908445054541",
        "ascending_node_longitude": "331.2470775580508",
        "orbital_period": "1196.275096610389",
        "perihelion_distance": ".7183866113041233",
        "perihelion_argument": "87.80015109438362",
        "aphelion_distance": "3.692424084591368",
        "perihelion_time": "2458832.485486968724",
        "mean_anomaly": "15.35200786449262",
        "mean_motion": ".3009341254532921",
        "equinox": "J2000",
        "orbit_class": {
            "orbit_class_type": "APO",
            "orbit_class_description": "Near-Earth asteroid orbits which cross the Earth’s orbit similar to that of 1862 Apollo",
            "orbit_class_range": "a (semi-major axis) > 1.0 AU; q (perihelion) < 1.017 AU"
        }
    },
    "is_sentry_object": false
}